NORAD_CAT_ID,OBJECT_NAME,OBJECT_TYPE,EPOCH,MEAN_MOTION,ECCENTRICITY,INCLINATION,RA_OF_ASC_NODE,ARG_OF_PERICENTER,MEAN_ANOMALY,BSTAR,MEAN_MOTION_DOT,MEAN_MOTION_DDOT,TLE_LINE0,TLE_LINE1,TLE_LINE2,SEMIMAJOR_AXIS,PERIOD,APOGEE,PERIGEE,DECAYED
52120.0,STARLINK-3534,PAYLOAD,2024-08-20 20:10:17,15.08850525,0.0001462,53.2164,99.3145,97.8666,262.2492,0.00066551,0.00010322,0.0,0 STARLINK-3534,1 52120U 22029AJ  24233.84047953  .00010322  00000-0  66551-3 0  9993,2 52120  53.2164  99.3145 0001462  97.8666 262.2492 15.08850525135374,6917.848,95.437,540.725,538.702,0.0
52120.0,STARLINK-3534,PAYLOAD,2024-08-21 15:14:54,15.08851825,0.0001615,53.2164,95.7469,87.1329,272.9848,0.00035207,5.321e-05,0.0,0 STARLINK-3534,1 52120U 22029AJ  24234.63535730  .00005321  00000-0  35207-3 0  9993,2 52120  53.2164  95.7469 0001615  87.1329 272.9848 15.08851825135491,6917.844,95.437,540.826,538.592,0.0
52120.0,STARLINK-3534,PAYLOAD,2024-08-21 18:25:41,15.08845832,0.0001723,53.2168,95.1444,109.4101,250.7078,0.00012646,1.725e-05,0.0,0 STARLINK-3534,1 52120U 22029AJ  24234.76783660  .00001725  00000-0  12646-3 0  9990,2 52120  53.2168  95.1444 0001723 109.4101 250.7078 15.08845832135511,6917.863,95.437,540.92,538.536,0.0
52120.0,STARLINK-3534,PAYLOAD,2024-08-21 21:36:27,15.08840039,0.0001491,53.2169,94.5565,94.0878,266.0284,0.00014839,2.074e-05,0.0,0 STARLINK-3534,1 52120U 22029AJ  24234.90032078  .00002074  00000-0  14839-3 0  9990,2 52120  53.2169  94.5565 0001491  94.0878 266.0284 15.08840039135536,6917.88,95.438,540.777,538.714,0.0
